NORAD_CAT_ID,OBJECT_NAME,OBJECT_TYPE,EPOCH,MEAN_MOTION,ECCENTRICITY,INCLINATION,RA_OF_ASC_NODE,ARG_OF_PERICENTER,MEAN_ANOMALY,BSTAR,MEAN_MOTION_DOT,MEAN_MOTION_DDOT,TLE_LINE0,TLE_LINE1,TLE_LINE2,SEMIMAJOR_AXIS,PERIOD,APOGEE,PERIGEE,DECAYED
51804.0,STARLINK-3601,PAYLOAD,2023-07-08 19:59:20,15.08842632,0.0001376,53.2181,25.4227,80.7337,279.381,-9.2958e-05,-1.767e-05,0.0,0 STARLINK-3601,1 51804U 22017AN  23189.83287241 -.00001767  00000-0 -92958-4 0  9998,2 51804  53.2181  25.4227 0001376  80.7337 279.3810 15.08842632 77088,6917.872,95.437,540.689,538.785,0.0
51804.0,STARLINK-3601,PAYLOAD,2023-07-08 23:10:06,15.08829897,0.0001075,53.2183,24.8273,84.6529,275.4586,0.00026773,3.975e-05,0.0,0 STARLINK-3601,1 51804U 22017AN  23189.96535748  .00003975  00000-0  26773-3 0  9992,2 51804  53.2183  24.8273 0001075  84.6529 275.4586 15.08829897 77104,6917.911,95.438,540.52,539.033,0.0
51804.0,STARLINK-3601,PAYLOAD,2023-07-10 05:22:26,15.08840112,9.69e-05,53.2187,19.1809,83.0732,277.0371,4.7408e-05,4.67e-06,0.0,0 STARLINK-3601,1 51804U 22017AN  23191.22391904  .00000467  00000-0  47408-4 0  9990,2 51804  53.2187  19.1809 0000969  83.0732 277.0371 15.08840112 77293,6917.88,95.438,540.415,539.075,0.0
51804.0,STARLINK-3601,PAYLOAD,2023-07-10 22:51:40,15.08849702,0.0001012,53.2187,15.9084,84.3461,275.7647,0.0001938,2.799e-05,0.0,0 STARLINK-3601,1 51804U 22017AN  23191.95254978  .00002799  00000-0  19380-3 0  9996,2 51804  53.2187  15.9084 0001012  84.3461 275.7647 15.08849702 77403,6917.851,95.437,540.416,539.016,0.0
51804.0,STARLINK-3601,PAYLOAD,2023-07-11 05:13:16,15.08806488,0.0001007,53.2185,14.7181,98.6819,261.4287,-0.00017769,-3.112e-05,0.0,0 STARLINK-3601,1 51804U 22017AN  23192.21754872 -.00003112  00000-0 -17769-3 0  9995,2 51804  53.2185  14.7181 0001007  98.6819 261.4287 15.08806488 77445,6917.983,95.44,540.544,539.151,0.0
51804.0,STARLINK-3601,PAYLOAD,2023-07-11 11:34:49,15.08799395,0.0001164,53.2183,13.5299,100.0778,260.0345,-0.00014233,-2.55e-05,0.0,0 STARLINK-3601,1 51804U 22017AN  23192.48251951 -.00002550  00000-0 -14233-3 0  9992,2 51804  53.2183  13.5299 0001164 100.0778 260.0345 15.08799395 77488,6918.005,95.44,540.675,539.064,0.0
51804.0,STARLINK-3601,PAYLOAD,2023-07-12 05:04:02,15.08838452,5.49e-05,53.2183,10.258,142.8243,217.2787,0.00027243,4.051e-05,0.0,0 STARLINK-3601,1 51804U 22017AN  23193.21114132  .00004051  00000-0  27243-3 0  9994,2 51804  53.2183  10.2580 0000549 142.8243 217.2787 15.08838452 77596,6917.885,95.438,540.13,539.37,0.0
51804.0,STARLINK-3601,PAYLOAD,2023-07-12 17:47:07,15.08854468,7.76e-05,53.2185,7.8794,120.6858,239.4211,0.00049345,7.577e-05,0.0,0 STARLINK-3601,1 51804U 22017AN  23193.74105786  .00007577  00000-0  49345-3 0  9990,2 51804  53.2185   7.8794 0000776 120.6858 239.4211 15.08854468 77677,6917.836,95.437,540.238,539.164,0.0
51804.0,STARLINK-3601,PAYLOAD,2023-07-13 17:37:54,15.08864206,6.86e-05,53.2167,3.4175,136.1868,223.9179,0.00074248,0.00011556,0.0,0 STARLINK-3601,1 51804U 22017AN  23194.73465433  .00011556  00000-0  74248-3 0  9990,2 51804  53.2167   3.4175 0000686 136.1868 223.9179 15.08864206 77824,6917.806,95.436,540.146,539.197,0.0
51804.0,STARLINK-3601,PAYLOAD,2023-07-14 11:07:07,15.08865159,7.52e-05,53.2167,0.1473,127.0241,233.082,8.9745e-05,1.142e-05,0.0,0 STARLINK-3601,1 51804U 22017AN  23195.46328146  .00001142  00000-0  89745-4 0  9999,2 51804  53.2167   0.1473 0000752 127.0241 233.0820 15.08865159 77932,6917.803,95.436,540.189,539.148,0.0
51804.0,STARLINK-3601,PAYLOAD,2023-07-15 10:57:54,15.08852245,3.65e-05,53.2168,355.6862,80.7632,279.3402,-3.6113e-05,-8.62e-06,0.0,0 STARLINK-3601,1 51804U 22017AN  23196.45687825 -.00000862  00000-0 -36113-4 0  9992,2 51804  53.2168 355.6862 0000365  80.7632 279.3402 15.08852245 78080,6917.843,95.437,539.96,539.455,0.0
51804.0,STARLINK-3601,PAYLOAD,2023-07-16 10:48:41,15.08833811,5.41e-05,53.2187,351.2274,79.5179,280.5874,1.0286e-05,-1.24e-06,0.0,0 STARLINK-3601,1 51804U 22017AN  23197.45048476 -.00000124  00000-0  10286-4 0  9999,2 51804  53.2187 351.2274 0000541  79.5179 280.5874 15.08833811 78230,6917.899,95.438,540.139,539.39,0.0
51804.0,STARLINK-3601,PAYLOAD,2023-07-16 18:45:37,15.08843162,5.5e-05,53.2193,349.74,88.7672,271.3383,1.2175e-05,-9.4e-07,0.0,0 STARLINK-3601,1 51804U 22017AN  23197.78168162 -.00000094  00000-0  12175-4 0  9995,2 51804  53.2193 349.7400 0000550  88.7672 271.3383 15.08843162 78288,6917.871,95.437,540.116,539.355,0.0
51804.0,STARLINK-3601,PAYLOAD,2023-07-18 10:30:15,15.08840274,5.05e-05,53.2186,342.3076,90.2483,269.8567,5.4095e-05,5.74e-06,0.0,0 STARLINK-3601,1 51804U 22017AN  23199.43768112  .00000574  00000-0  54095-4 0  9999,2 51804  53.2186 342.3076 0000505  90.2483 269.8567 15.08840274 78531,6917.88,95.438,540.094,539.395,0.0
51804.0,STARLINK-3601,PAYLOAD,2023-07-18 21:37:56,15.08852713,6.4e-05,53.2187,340.2242,89.5421,270.5645,0.00017339,2.474e-05,0.0,0 STARLINK-3601,1 51804U 22017AN  23199.90135192  .00002474  00000-0  17339-3 0  9997,2 51804  53.2187 340.2242 0000640  89.5421 270.5645 15.08852713 78602,6917.842,95.437,540.149,539.264,0.0
51804.0,STARLINK-3601,PAYLOAD,2023-07-19 10:21:03,15.08820907,2.85e-05,53.218,337.8469,100.2763,259.8262,-0.00024952,-4.254e-05,0.0,0 STARLINK-3601,1 51804U 22017AN  23200.43129106 -.00004254  00000-0 -24952-3 0  9995,2 51804  53.2180 337.8469 0000285 100.2763 259.8262 15.08820907 78686,6917.939,95.439,540.001,539.607,0.0
51804.0,STARLINK-3601,PAYLOAD,2023-07-19 16:42:35,15.08832671,5.53e-05,53.2178,336.6557,100.8169,259.2885,-0.00010734,-1.995e-05,0.0,0 STARLINK-3601,1 51804U 22017AN  23200.69624759 -.00001995  00000-0 -10734-3 0  9999,2 51804  53.2178 336.6557 0000553 100.8169 259.2885 15.08832671 78723,6917.903,95.438,540.15,539.385,0.0
51804.0,STARLINK-3601,PAYLOAD,2023-07-20 13:22:36,15.08845088,6.17e-05,53.2182,332.7905,102.3442,257.762,0.0001698,2.416e-05,0.0,0 STARLINK-3601,1 51804U 22017AN  23201.55736633  .00002416  00000-0  16980-3 0  9996,2 51804  53.2182 332.7905 0000617 102.3442 257.7620 15.08845088 78854,6917.865,95.437,540.157,539.303,0.0
51804.0,STARLINK-3601,PAYLOAD,2023-07-20 16:33:22,15.08851125,6.01e-05,53.2177,332.1955,93.2955,266.8106,0.00045275,6.927e-05,0.0,0 STARLINK-3601,1 51804U 22017AN  23201.68984655  .00006927  00000-0  45275-3 0  9999,2 51804  53.2177 332.1955 0000601  93.2955 266.8106 15.08851125 78878,6917.846,95.437,540.127,539.296,0.0
51804.0,STARLINK-3601,PAYLOAD,2023-07-21 17:59:32,15.08858694,6.39e-05,53.218,327.4386,75.949,284.1573,0.00048196,7.395e-05,0.0,0 STARLINK-3601,1 51804U 22017AN  23202.74968232  .00007395  00000-0  48196-3 0  9995,2 51804  53.2180 327.4386 0000639  75.9490 284.1573 15.08858694 79037,6917.823,95.436,540.13,539.246,0.0
51804.0,STARLINK-3601,PAYLOAD,2023-07-24 07:59:35,15.08844953,7.66e-05,53.2178,315.8441,58.3743,301.7324,0.00032194,4.84e-05,0.0,0 STARLINK-3601,1 51804U 22017AN  23205.33305124  .00004840  00000-0  32194-3 0  9991,2 51804  53.2178 315.8441 0000766  58.3743 301.7324 15.08844953 79329,6917.865,95.437,540.26,539.2,0.0
51804.0,STARLINK-3601,PAYLOAD,2023-07-25 11:01:08,15.08836083,8.47e-05,53.2167,310.7862,101.8681,258.2406,-1.8522e-05,-5.82e-06,0.0,0 STARLINK-3601,1 51804U 22017AN  23206.45913103 -.00000582  00000-0 -18522-4 0  9998,2 51804  53.2167 310.7862 0000847 101.8681 258.2406 15.08836083 79493,6917.892,95.438,540.343,539.171,0.0
51804.0,STARLINK-3601,PAYLOAD,2023-07-26 09:16:32,15.08846468,8.04e-05,53.2172,306.6236,99.1442,260.9641,5.9051e-05,6.52e-06,0.0,0 STARLINK-3601,1 51804U 22017AN  23207.38648782  .00000652  00000-0  59051-4 0  9997,2 51804  53.2172 306.6236 0000804  99.1442 260.9641 15.08846468 79630,6917.861,95.437,540.282,539.169,0.0
51804.0,STARLINK-3601,PAYLOAD,2023-07-26 17:13:28,15.08858325,9.15e-05,53.2185,305.1382,97.5375,262.5721,0.00076345,0.00011889,0.0,0 STARLINK-3601,1 51804U 22017AN  23207.71768545  .00011889  00000-0  76345-3 0  9992,2 51804  53.2185 305.1382 0000915  97.5375 262.5721 15.08858325 79788,6917.824,95.436,540.322,539.056,0.0
51804.0,STARLINK-3601,PAYLOAD,2023-07-26 23:35:00,15.08845476,8.59e-05,53.2163,303.9485,81.9231,278.1858,0.00016196,2.291e-05,0.0,0 STARLINK-3601,1 51804U 22017AN  23207.98264241  .00002291  00000-0  16196-3 0  9990,2 51804  53.2163 303.9485 0000859  81.9231 278.1858 15.08845476 79821,6917.864,95.437,540.323,539.134,0.0
51804.0,STARLINK-3601,PAYLOAD,2023-07-27 15:28:51,15.08847103,8.71e-05,53.2169,300.972,84.4472,275.6619,-4.5174e-05,-1.007e-05,0.0,0 STARLINK-3601,1 51804U 22017AN  23208.64504574 -.00001007  00000-0 -45174-4 0  9995,2 51804  53.2169 300.9720 0000871  84.4472 275.6619 15.08847103 79922,6917.859,95.437,540.326,539.121,0.0
51804.0,STARLINK-3601,PAYLOAD,2023-07-27 18:39:38,15.08848501,0.0001813,53.217,300.3793,80.9531,279.1666,0.00024403,3.599e-05,0.0,0 STARLINK-3601,1 51804U 22017AN  23208.77752959  .00003599  00000-0  24403-3 0  9998,2 51804  53.2170 300.3793 0001813  80.9531 279.1666 15.08848501 79847,6917.854,95.437,540.974,538.465,0.0
51804.0,STARLINK-3601,PAYLOAD,2023-07-27 23:25:47,15.08832317,3.11e-05,53.2173,299.4875,236.7884,123.3078,-0.00019281,-3.354e-05,0.0,0 STARLINK-3601,1 51804U 22017AN  23208.97624765 -.00003354  00000-0 -19281-3 0  9992,2 51804  53.2173 299.4875 0000311 236.7884 123.3078 15.08832317 79972,6917.904,95.438,539.984,539.554,0.0
51804.0,STARLINK-3601,PAYLOAD,2023-07-28 05:47:20,15.08826298,4.21e-05,53.2165,298.2967,103.7642,256.3397,-0.00024615,-4.201e-05,0.0,0 STARLINK-3601,1 51804U 22017AN  23209.24121231 -.00004201  00000-0 -24615-3 0  9992,2 51804  53.2165 298.2967 0000421 103.7642 256.3397 15.08826298 79915,6917.922,95.438,540.079,539.496,0.0
51804.0,STARLINK-3601,PAYLOAD,2023-07-29 10:24:17,15.08845613,7.56e-05,53.2147,292.9435,90.3477,269.7601,0.00059139,9.138e-05,0.0,0 STARLINK-3601,1 51804U 22017AN  23210.43353572  .00009138  00000-0  59139-3 0  9991,2 51804  53.2147 292.9435 0000756  90.3477 269.7601 15.08845613 80194,6917.863,95.437,540.251,539.205,0.0
